EUTELSAT 7A             
1 28187U 04008A   25220.42626744  .00000104  00000+0  00000+0 0  9997
2 28187   5.0299  75.7605 0001034  78.0777 177.5967  1.00270370 78217
EUTELSAT 174A           
1 28924U 05052A   25220.52128075  .00000010  00000+0  00000+0 0  9997
2 28924   3.4209  80.4461 0006260  56.1895 182.2641  1.00270851 49197
EUTELSAT HOTBIRD 13B    
1 29270U 06032A   25220.54912331  .00000158  00000+0  00000+0 0  9992
2 29270   0.8483  85.8006 0004158  47.0757  55.1887  1.00269982 44177
EUTELSAT HOTBIRD 13C    
1 33459U 08065A   25220.39727774 -.00000098  00000+0  00000+0 0  9996
2 33459   2.1405  82.9616 0003616  66.4665 298.2343  1.00271760 44215
EUTELSAT 36B            
1 36101U 09065A   25220.55256939  .00000115  00000+0  00000+0 0  9991
2 36101   0.0516 359.1408 0005862 138.7175  68.8415  1.00272383 57570
EUTELSAT KA-SAT 9A      
1 37258U 10069A   25220.54418329  .00000064  00000+0  00000+0 0  9996
2 37258   0.0559 306.1653 0004356 179.7198  36.2866  1.00270031 40874
EUTELSAT 7 WEST A       
1 37816U 11051A   25220.39831775 -.00000057  00000+0  00000+0 0  9998
2 37816   0.0676 335.3777 0005286 175.2618 302.6052  1.00271043 50755
EUTELSAT 16A            
1 37836U 11057A   25220.54556997  .00000106  00000+0  00000+0 0  9997
2 37836   0.0662 347.2007 0005497 148.0964  34.3940  1.00269482  4192
